GLOBALSTAR M094         
1 39074U 13005C   24267.96002913 -.00000080  00000+0  12999-3 0  9994
2 39074  51.9942 272.7014 0000593  62.9962 297.0965 12.62268577538751
GLOBALSTAR M096         
1 39075U 13005D   24268.44834957 -.00000075  00000+0  15825-3 0  9995
2 39075  52.0088 319.5232 0000614  70.0614 290.0318 12.62270562538083
GLOBALSTAR M078         
1 39076U 13005E   24268.10497027 -.00000095  00000+0  48177-4 0  9991
2 39076  51.9885  45.4333 0000541 352.7988   7.2870 12.62274907536522
GLOBALSTAR M095         
1 39077U 13005F   24268.28997493 -.00000095  00000+0  51114-4 0  9998
2 39077  51.9815  42.2004 0000779  49.4177 310.6757 12.62264913536553
GLOBALSTAR M087         
1 52888U 22064A   24268.19081954 -.00000067  00000+0  11703-3 0  9992
2 52888  51.9748 223.1564 0008867 256.0422 103.9492 13.37586345110779
